NORAD_CAT_ID,OBJECT_NAME,OBJECT_TYPE,EPOCH,MEAN_MOTION,ECCENTRICITY,INCLINATION,RA_OF_ASC_NODE,ARG_OF_PERICENTER,MEAN_ANOMALY,BSTAR,MEAN_MOTION_DOT,MEAN_MOTION_DDOT,TLE_LINE0,TLE_LINE1,TLE_LINE2,SEMIMAJOR_AXIS,PERIOD,APOGEE,PERIGEE,DECAYED
52117.0,STARLINK-3738,PAYLOAD,2023-08-26 02:14:26,15.08834803,0.0001355,53.2164,278.7756,105.8227,254.2914,9.4123e-05,1.21e-05,0.0,0 STARLINK-3738,1 52117U 22029AF  23238.09336617  .00001210  00000-0  94123-4 0  9991,2 52117  53.2164 278.7756 0001355 105.8227 254.2914 15.08834803 80915,6917.896,95.438,540.699,538.824,0.0
52117.0,STARLINK-3738,PAYLOAD,2023-08-26 10:11:22,15.08834514,0.0001228,53.2161,277.2881,96.5636,263.5496,0.00013422,1.849e-05,0.0,0 STARLINK-3738,1 52117U 22029AF  23238.42456684  .00001849  00000-0  13422-3 0  9995,2 52117  53.2161 277.2881 0001228  96.5636 263.5496 15.08834514 80966,6917.897,95.438,540.612,538.913,0.0
52117.0,STARLINK-3738,PAYLOAD,2023-08-27 10:02:09,15.08836765,0.0001258,53.2159,272.8273,93.5739,266.5397,4.7929e-05,4.75e-06,0.0,0 STARLINK-3738,1 52117U 22029AF  23239.41816941  .00000475  00000-0  47929-4 0  9995,2 52117  53.2159 272.8273 0001258  93.5739 266.5397 15.08836765 81114,6917.89,95.438,540.626,538.885,0.0
52117.0,STARLINK-3738,PAYLOAD,2023-08-28 19:25:13,15.08867295,0.0001264,53.2169,266.583,93.3397,266.774,0.0002725,4.055e-05,0.0,0 STARLINK-3738,1 52117U 22029AF  23240.80917950  .00004055  00000-0  27250-3 0  9994,2 52117  53.2169 266.5830 0001264  93.3397 266.7740 15.08867295 81328,6917.797,95.436,540.536,538.788,0.0
52117.0,STARLINK-3738,PAYLOAD,2023-08-29 08:08:20,15.08831188,0.0001244,53.2161,264.2036,90.3946,269.7189,-3.6461e-05,-8.68e-06,0.0,0 STARLINK-3738,1 52117U 22029AF  23241.33912537 -.00000868  00000-0 -36461-4 0  9994,2 52117  53.2161 264.2036 0001244  90.3946 269.7189 15.08831188 81409,6917.907,95.438,540.633,538.912,0.0
52117.0,STARLINK-3738,PAYLOAD,2023-08-29 11:19:06,15.08831716,0.0001214,53.216,263.6087,89.7969,270.3162,-3.2645e-05,-8.07e-06,0.0,0 STARLINK-3738,1 52117U 22029AF  23241.47160528 -.00000807  00000-0 -32645-4 0  9997,2 52117  53.2160 263.6087 0001214  89.7969 270.3162 15.08831716 81429,6917.906,95.438,540.611,538.931,0.0
52117.0,STARLINK-3738,PAYLOAD,2023-08-30 07:59:07,15.08832988,0.000129,53.2164,259.7427,92.3597,267.7543,-7.7811e-05,-1.526e-05,0.0,0 STARLINK-3738,1 52117U 22029AF  23242.33272812 -.00001526  00000-0 -77811-4 0  9996,2 52117  53.2164 259.7427 0001290  92.3597 267.7543 15.08832988 81557,6917.902,95.438,540.659,538.874,0.0
52117.0,STARLINK-3738,PAYLOAD,2023-08-31 01:28:20,15.08909487,0.0001029,53.2163,256.4721,67.4047,292.7054,-0.001093,-0.00017674,0.0,0 STARLINK-3738,1 52117U 22029AF  23243.06134415 -.00017674  00000-0 -10930-2 0  9991,2 52117  53.2163 256.4721 0001029  67.4047 292.7054 15.08909487 81666,6917.668,95.433,540.245,538.821,0.0
52117.0,STARLINK-3738,PAYLOAD,2023-08-31 11:00:40,15.08827424,0.0001215,53.2161,254.6874,92.7116,267.4015,0.00013437,1.851e-05,0.0,0 STARLINK-3738,1 52117U 22029AF  23243.45880511  .00001851  00000-0  13437-3 0  9993,2 52117  53.2161 254.6874 0001215  92.7116 267.4015 15.08827424 81721,6917.919,95.438,540.624,538.943,0.0
52117.0,STARLINK-3738,PAYLOAD,2023-09-01 12:26:51,15.08836729,0.0001215,53.2163,249.9297,93.2647,266.8484,0.00015675,2.207e-05,0.0,0 STARLINK-3738,1 52117U 22029AF  23244.51864730  .00002207  00000-0  15675-3 0  9998,2 52117  53.2163 249.9297 0001215  93.2647 266.8484 15.08836729 81882,6917.89,95.438,540.596,538.915,0.0
52117.0,STARLINK-3738,PAYLOAD,2023-09-01 17:13:00,15.08833502,0.0001311,53.2166,249.0373,89.4068,270.7074,0.00011489,1.541e-05,0.0,0 STARLINK-3738,1 52117U 22029AF  23244.71737186  .00001541  00000-0  11489-3 0  9993,2 52117  53.2166 249.0373 0001311  89.4068 270.7074 15.08833502 81911,6917.9,95.438,540.672,538.858,0.0
52117.0,STARLINK-3738,PAYLOAD,2023-09-02 01:09:56,15.08836496,0.0001408,53.2155,247.5508,93.038,267.0773,8.3263e-05,1.037e-05,0.0,0 STARLINK-3738,1 52117U 22029AF  23245.04857228  .00001037  00000-0  83263-4 0  9990,2 52117  53.2155 247.5508 0001408  93.0380 267.0773 15.08836496 81962,6917.891,95.438,540.73,538.782,0.0
52117.0,STARLINK-3738,PAYLOAD,2023-09-02 17:03:48,15.08838747,0.0001412,53.2163,244.5768,88.3721,271.7433,7.9626e-05,9.79e-06,0.0,0 STARLINK-3738,1 52117U 22029AF  23245.71097287  .00000979  00000-0  79626-4 0  9997,2 52117  53.2163 244.5768 0001412  88.3721 271.7433 15.08838747 82065,6917.884,95.438,540.726,538.772,0.0
52117.0,STARLINK-3738,PAYLOAD,2023-09-03 08:57:39,15.08842887,0.0001424,53.2164,241.6029,87.9071,272.2085,7.5734e-05,9.18e-06,0.0,0 STARLINK-3738,1 52117U 22029AF  23246.37337120  .00000918  00000-0  75734-4 0  9992,2 52117  53.2164 241.6029 0001424  87.9071 272.2085 15.08842887 82160,6917.872,95.437,540.722,538.751,0.0
52117.0,STARLINK-3738,PAYLOAD,2023-09-03 12:08:25,15.08845172,0.0001409,53.2165,241.008,87.2154,272.8999,8.9955e-05,1.144e-05,0.0,0 STARLINK-3738,1 52117U 22029AF  23246.50584879  .00001144  00000-0  89955-4 0  9994,2 52117  53.2165 241.0080 0001409  87.2154 272.8999 15.08845172 82182,6917.865,95.437,540.704,538.755,0.0
52117.0,STARLINK-3738,PAYLOAD,2023-09-03 16:54:35,15.08835959,0.0001446,53.2165,240.1151,84.5295,275.5862,4.1079e-05,3.66e-06,0.0,0 STARLINK-3738,1 52117U 22029AF  23246.70457674  .00000366  00000-0  41079-4 0  9998,2 52117  53.2165 240.1151 0001446  84.5295 275.5862 15.08835959 82213,6917.893,95.438,540.758,538.757,0.0
52117.0,STARLINK-3738,PAYLOAD,2023-09-04 05:37:40,15.08839068,0.0001538,53.2161,237.7352,81.9336,278.183,-5.9007e-05,-1.227e-05,0.0,0 STARLINK-3738,1 52117U 22029AF  23247.23449843 -.00001227  00000-0 -59007-4 0  9995,2 52117  53.2161 237.7352 0001538  81.9336 278.1830 15.08839068 82290,6917.883,95.438,540.812,538.684,0.0
52117.0,STARLINK-3738,PAYLOAD,2023-09-04 23:06:54,15.08840793,0.0001361,53.2161,234.466,85.0301,275.0847,7.5548e-05,9.15e-06,0.0,0 STARLINK-3738,1 52117U 22029AF  23247.96313578  .00000915  00000-0  75548-4 0  9999,2 52117  53.2161 234.4660 0001361  85.0301 275.0847 15.08840793 82401,6917.878,95.438,540.684,538.801,0.0
52117.0,STARLINK-3738,PAYLOAD,2023-09-05 08:39:13,15.08847037,0.0001376,53.2159,232.6827,82.4618,277.6531,0.00010595,1.399e-05,0.0,0 STARLINK-3738,1 52117U 22029AF  23248.36057052  .00001399  00000-0  10595-3 0  9993,2 52117  53.2159 232.6827 0001376  82.4618 277.6531 15.08847037 82463,6917.859,95.437,540.676,538.772,0.0
52117.0,STARLINK-3738,PAYLOAD,2023-09-06 08:30:00,15.08841237,0.0001354,53.2161,228.2219,83.888,276.2267,9.5725e-05,1.236e-05,0.0,0 STARLINK-3738,1 52117U 22029AF  23249.35417499  .00001236  00000-0  95725-4 0  9997,2 52117  53.2161 228.2219 0001354  83.8880 276.2267 15.08841237 82618,6917.877,95.437,540.678,538.805,0.0
52117.0,STARLINK-3738,PAYLOAD,2023-09-07 08:20:47,15.08843902,0.0001385,53.2163,223.7609,93.3716,266.7434,2.1e-05,4.6e-07,0.0,0 STARLINK-3738,1 52117U 22029AF  23250.34777463  .00000046  00000-0  21000-4 0  9991,2 52117  53.2163 223.7609 0001385  93.3716 266.7434 15.08843902 82768,6917.868,95.437,540.692,538.775,0.0
52117.0,STARLINK-3738,PAYLOAD,2023-09-08 03:25:25,15.08838166,0.0001331,53.2153,220.1931,83.2007,276.9137,1.5451e-05,-4.2e-07,0.0,0 STARLINK-3738,1 52117U 22029AF  23251.14265993 -.00000042  00000-0  15451-4 0  9990,2 52117  53.2153 220.1931 0001331  83.2007 276.9137 15.08838166 82880,6917.886,95.438,540.672,538.83,0.0
52117.0,STARLINK-3738,PAYLOAD,2023-09-08 05:00:48,15.08839797,0.0001348,53.2153,219.895,90.8235,269.2911,2.536e-05,1.16e-06,0.0,0 STARLINK-3738,1 52117U 22029AF  23251.20889851  .00000116  00000-0  25360-4 0  9993,2 52117  53.2153 219.8950 0001348  90.8235 269.2911 15.08839797 82898,6917.881,95.438,540.679,538.813,0.0
52117.0,STARLINK-3738,PAYLOAD,2023-09-08 14:33:07,15.08836856,0.0001416,53.2157,218.1116,89.3266,270.7888,6.1443e-05,6.9e-06,0.0,0 STARLINK-3738,1 52117U 22029AF  23251.60634039  .00000690  00000-0  61443-4 0  9992,2 52117  53.2157 218.1116 0001416  89.3266 270.7888 15.08836856 82951,6917.89,95.438,540.735,538.775,0.0
52117.0,STARLINK-3738,PAYLOAD,2023-09-09 06:26:59,15.08838532,0.0001322,53.2167,215.1387,93.8194,266.295,6.3738e-05,7.27e-06,0.0,0 STARLINK-3738,1 52117U 22029AF  23252.26874134  .00000727  00000-0  63738-4 0  9997,2 52117  53.2167 215.1387 0001322  93.8194 266.2950 15.08838532 83050,6917.885,95.438,540.664,538.835,0.0
52117.0,STARLINK-3738,PAYLOAD,2023-09-10 06:17:46,15.08844152,0.0001345,53.2176,210.679,93.3276,266.787,0.00011989,1.621e-05,0.0,0 STARLINK-3738,1 52117U 22029AF  23253.26233867  .00001621  00000-0  11989-3 0  9994,2 52117  53.2176 210.6790 0001345  93.3276 266.7870 15.08844152 83207,6917.868,95.437,540.663,538.802,0.0
52117.0,STARLINK-3738,PAYLOAD,2023-09-11 02:57:47,15.08825567,0.0001448,53.2175,206.8138,101.899,258.2164,0.00021762,3.176e-05,0.0,0 STARLINK-3738,1 52117U 22029AF  23254.12346841  .00003176  00000-0  21762-3 0  9994,2 52117  53.2175 206.8138 0001448 101.8990 258.2164 15.08825567 83336,6917.925,95.438,540.791,538.788,0.0
52117.0,STARLINK-3738,PAYLOAD,2023-09-11 06:08:33,15.08840566,0.0001312,53.2173,206.2181,91.0643,269.0499,4.7431e-05,4.67e-06,0.0,0 STARLINK-3738,1 52117U 22029AF  23254.25594444  .00000467  00000-0  47431-4 0  9994,2 52117  53.2173 206.2181 0001312  91.0643 269.0499 15.08840566 83350,6917.879,95.438,540.651,538.836,0.0
52117.0,STARLINK-3738,PAYLOAD,2023-09-11 14:05:29,15.08841904,0.0001295,53.2173,204.7309,89.7181,270.396,4.6683e-05,4.55e-06,0.0,0 STARLINK-3738,1 52117U 22029AF  23254.58714353  .00000455  00000-0  46683-4 0  9998,2 52117  53.2173 204.7309 0001295  89.7181 270.3960 15.08841904 83407,6917.875,95.437,540.635,538.844,0.0
52117.0,STARLINK-3738,PAYLOAD,2023-09-12 05:59:20,15.08849367,0.0001283,53.2175,201.757,91.6805,268.4334,6.4399e-05,7.37e-06,0.0,0 STARLINK-3738,1 52117U 22029AF  23255.24953788  .00000737  00000-0  64399-4 0  9996,2 52117  53.2175 201.7570 0001283  91.6805 268.4334 15.08849367 83503,6917.852,95.437,540.604,538.829,0.0
